$$SOE
2459580.500000000, A.D. 2022-Jan-01 00:00:00.0000, -5.671868606451609E+08, 1.913125653981188E+08, -2.343374384482373E+07,
2459587.500000000, A.D. 2022-Jan-08 00:00:00.0000, -5.709163259034859E+08, 1.847197718146325E+08, -2.174705672011497E+07,
2459594.500000000, A.D. 2022-Jan-15 00:00:00.0000, -5.745178240315195E+08, 1.780855606942649E+08, -2.005549095522942E+07,
2459601.500000000, A.D. 2022-Jan-22 00:00:00.0000, -5.779914214478676E+08, 1.714116907196285E+08, -1.835945694167940E+07,
2459608.500000000, A.D. 2022-Jan-29 00:00:00.0000, -5.813371911983893E+08, 1.646999020146164E+08, -1.665935976188388E+07,
2459615.500000000, A.D. 2022-Feb-05 00:00:00.0000, -5.845552147071468E+08, 1.579519162256606E+08, -1.495559923564058E+07,
2459622.500000000, A.D. 2022-Feb-12 00:00:00.0000, -5.876455813809638E+08, 1.511694355222828E+08, -1.324857024741348E+07,
2459629.500000000, A.D. 2022-Feb-19 00:00:00.0000, -5.906083873898560E+08, 1.443541428859208E+08, -1.153866303940473E+07,
2459636.500000000, A.D. 2022-Feb-26 00:00:00.0000, -5.934437349331748E+08, 1.375077029637397E+08, -9.826263409521885E+06,
2459643.500000000, A.D. 2022-Mar-05 00:00:00.0000, -5.961517318312169E+08, 1.306317628705618E+08, -8.111752879696891E+06,
2459650.500000000, A.D. 2022-Mar-12 00:00:00.0000, -5.987324912196325E+08, 1.237279528734062E+08, -6.395508860735685E+06,
2459657.500000000, A.D. 2022-Mar-19 00:00:00.0000, -6.011861312749201E+08, 1.167978869870393E+08, -4.677904818407066E+06,
2459664.500000000, A.D. 2022-Mar-26 00:00:00.0000, -6.035127749480754E+08, 1.098431634751675E+08, -2.959310443775468E+06,
2459671.500000000, A.D. 2022-Apr-02 00:00:00.0000, -6.057125496380532E+08, 1.028653652021707E+08, -1.240091838979736E+06,
2459678.500000000, A.D. 2022-Apr-09 00:00:00.0000, -6.077855865323280E+08, 9.586605984100191E+07, 4.793882566342428E+05,
2459685.500000000, A.D. 2022-Apr-16 00:00:00.0000, -6.097320192566264E+08, 8.884680059204163E+07, 2.198770220432028E+06,
2459692.500000000, A.D. 2022-Apr-23 00:00:00.0000, -6.115519831019441E+08, 8.180912849768740E+07, 3.917697485209532E+06,
2459699.500000000, A.D. 2022-Apr-30 00:00:00.0000, -6.132456166987488E+08, 7.475457410790710E+07, 5.635816650534153E+06,
2459706.500000000, A.D. 2022-May-07 00:00:00.0000, -6.148130630754247E+08, 6.768465652413681E+07, 7.352777324335411E+06,
2459713.500000000, A.D. 2022-May-14 00:00:00.0000, -6.162544687103750E+08, 6.060088286055072E+07, 9.068231815514132E+06,
2459720.500000000, A.D. 2022-May-21 00:00:00.0000, -6.175699826077323E+08, 5.350474888159657E+07, 1.078183492578080E+07,
2459727.500000000, A.D. 2022-May-28 00:00:00.0000, -6.187597558751121E+08, 4.639773985719734E+07, 1.249324380615734E+07,
2459734.500000000, A.D. 2022-Jun-04 00:00:00.0000, -6.198239415260749E+08, 3.928133132331876E+07, 1.420211782706063E+07,
2459741.500000000, A.D. 2022-Jun-11 00:00:00.0000, -6.207626943621918E+08, 3.215698975073076E+07, 1.590811844881970E+07,
2459748.500000000, A.D. 2022-Jun-18 00:00:00.0000, -6.215761708954910E+08, 2.502617313587001E+07, 1.761090909012851E+07,
2459755.500000000, A.D. 2022-Jun-25 00:00:00.0000, -6.222645292813574E+08, 1.789033148123560E+07, 1.931015498900658E+07,
2459762.500000000, A.D. 2022-Jul-02 00:00:00.0000, -6.228279291274024E+08, 1.075090710018810E+07, 2.100552303860473E+07,
2459769.500000000, A.D. 2022-Jul-09 00:00:00.0000, -6.232665307875723E+08, 3.609334923718808E+06, 2.269668157654959E+07,
2459776.500000000, A.D. 2022-Jul-16 00:00:00.0000, -6.235804941961902E+08, -3.532956107540150E+06, 2.438330022142379E+07,
2459783.500000000, A.D. 2022-Jul-23 00:00:00.0000, -6.237699794400421E+08, -1.067454048813496E+07, 2.606504996444402E+07,
2459790.500000000, A.D. 2022-Jul-30 00:00:00.0000, -6.238351489847260E+08, -1.781399578310131E+07, 2.774160323464565E+07,
2459797.500000000, A.D. 2022-Aug-06 00:00:00.0000, -6.237761679566103E+08, -2.494990380490733E+07, 2.941263366061695E+07,
2459804.500000000, A.D. 2022-Aug-13 00:00:00.0000, -6.235932033028669E+08, -3.208085057701791E+07, 3.107781582956380E+07,
2459811.500000000, A.D. 2022-Aug-20 00:00:00.0000, -6.232864233984812E+08, -3.920542558743298E+07, 3.273682514664399E+07,
2459818.500000000, A.D. 2022-Aug-27 00:00:00.0000, -6.228559980322551E+08, -4.632222105869512E+07, 3.438933772906651E+07,
2459825.500000000, A.D. 2022-Sep-03 00:00:00.0000, -6.223020985241601E+08, -5.342983134457833E+07, 3.603503030329247E+07,
2459832.500000000, A.D. 2022-Sep-10 00:00:00.0000, -6.216248978840909E+08, -6.052685242910210E+07, 3.767358009910120E+07,
2459839.500000000, A.D. 2022-Sep-17 00:00:00.0000, -6.208245709826744E+08, -6.761188152914640E+07, 3.930466473767916E+07,
2459846.500000000, A.D. 2022-Sep-24 00:00:00.0000, -6.199012946737200E+08, -7.468351685104129E+07, 4.092796210394960E+07,
2459853.500000000, A.D. 2022-Oct-01 00:00:00.0000, -6.188552476282411E+08, -8.174035752285029E+07, 4.254315017913471E+07,
2459860.500000000, A.D. 2022-Oct-08 00:00:00.0000, -6.176866094724069E+08, -8.878100317966960E+07, 4.414990683858901E+07,
2459867.500000000, A.D. 2022-Oct-15 00:00:00.0000, -6.163955601606604E+08, -9.580405200233926E+07, 4.574790979800700E+07,
2459874.500000000, A.D. 2022-Oct-22 00:00:00.0000, -6.149822817652549E+08, -1.028080988934766E+08, 4.733683677008682E+07,
2459881.500000000, A.D. 2022-Oct-29 00:00:00.0000, -6.134469601847502E+08, -1.097917363843727E+08, 4.891636539022745E+07,
2459888.500000000, A.D. 2022-Nov-05 00:00:00.0000, -6.117897846723915E+08, -1.167535555312833E+08, 5.048617294238904E+07,
2459895.500000000, A.D. 2022-Nov-12 00:00:00.0000, -6.100109471491138E+08, -1.236921455336913E+08, 5.204593616857361E+07,
2459902.500000000, A.D. 2022-Nov-19 00:00:00.0000, -6.081106420209062E+08, -1.306060930286845E+08, 5.359533114966433E+07,
2459909.500000000, A.D. 2022-Nov-26 00:00:00.0000, -6.060890662390689E+08, -1.374939814585929E+08, 5.513403320092532E+07,
2459916.500000000, A.D. 2022-Dec-03 00:00:00.0000, -6.039464194379743E+08, -1.443543905229387E+08, 5.666171676588452E+07,
2459923.500000000, A.D. 2022-Dec-10 00:00:00.0000, -6.016829041051718E+08, -1.511858956954541E+08, 5.817805530587410E+07,
2459930.500000000, A.D. 2022-Dec-17 00:00:00.0000, -5.992987257592978E+08, -1.579870678306645E+08, 5.968272118085846E+07,
2459937.500000000, A.D. 2022-Dec-24 00:00:00.0000, -5.967940930265628E+08, -1.647564729254683E+08, 6.117538550609388E+07,
2459944.500000000, A.D. 2022-Dec-31 00:00:00.0000, -5.941692172583213E+08, -1.714926719278263E+08, 6.265571796057652E+07,
2459951.500000000, A.D. 2023-Jan-07 00:00:00.0000, -5.914243115671110E+08, -1.781942196298140E+08, 6.412338661463982E+07,
2459958.500000000, A.D. 2023-Jan-14 00:00:00.0000, -5.885595912482368E+08, -1.848596621480405E+08, 6.557805799768333E+07,
2459965.500000000, A.D. 2023-Jan-21 00:00:00.0000, -5.855752762321864E+08, -1.914875361641272E+08, 6.701939720591375E+07,
2459972.500000000, A.D. 2023-Jan-28 00:00:00.0000, -5.824715919008631E+08, -1.980763701205247E+08, 6.844706769779244E+07,
2459979.500000000, A.D. 2023-Feb-04 00:00:00.0000, -5.792487684765915E+08, -2.046246843432434E+08, 6.986073104380953E+07,
2459986.500000000, A.D. 2023-Feb-11 00:00:00.0000, -5.759070407791083E+08, -2.111309902846136E+08, 7.126004677941573E+07,
2459993.500000000, A.D. 2023-Feb-18 00:00:00.0000, -5.724466484140726E+08, -2.175937897090809E+08, 7.264467229966211E+07,
2460000.500000000, A.D. 2023-Feb-25 00:00:00.0000, -5.688678361309254E+08, -2.240115739835962E+08, 7.401426275833562E+07,
2460007.500000000, A.D. 2023-Mar-04 00:00:00.0000, -5.651708542485789E+08, -2.303828234533656E+08, 7.536847096391785E+07,
2460014.500000000, A.D. 2023-Mar-11 00:00:00.0000, -5.613559591209066E+08, -2.367060069019033E+08, 7.670694726996967E+07,
2460021.500000000, A.D. 2023-Mar-18 00:00:00.0000, -5.574234135955164E+08, -2.429795811442932E+08, 7.802933945177573E+07,
2460028.500000000, A.D. 2023-Mar-25 00:00:00.0000, -5.533734872630305E+08, -2.492019908002802E+08, 7.933529254694052E+07,
2460035.500000000, A.D. 2023-Apr-01 00:00:00.0000, -5.492064560728705E+08, -2.553716678531860E+08, 8.062444865332597E+07,
2460042.500000000, A.D. 2023-Apr-08 00:00:00.0000, -5.449226019313287E+08, -2.614870297690713E+08, 8.189644684099953E+07,
2460049.500000000, A.D. 2023-Apr-15 00:00:00.0000, -5.405222146193476E+08, -2.675464772820248E+08, 8.315092330221307E+07,
2460056.500000000, A.D. 2023-Apr-22 00:00:00.0000, -5.360055942218391E+08, -2.735483948976209E+08, 8.438751132417661E+07,
2460063.500000000, A.D. 2023-Apr-29 00:00:00.0000, -5.313730513348350E+08, -2.794911518614553E+08, 8.560584101800406E+07,
2460070.500000000, A.D. 2023-May-06 00:00:00.0000, -5.266249068115244E+08, -2.853731018110499E+08, 8.680553911080422E+07,
2460077.500000000, A.D. 2023-May-13 00:00:00.0000, -5.217614920246511E+08, -2.911925820044083E+08, 8.798622881732303E+07,
2460084.500000000, A.D. 2023-May-20 00:00:00.0000, -5.167831494122294E+08, -2.969479126163416E+08, 8.914752972937080E+07,
2460091.500000000, A.D. 2023-May-27 00:00:00.0000, -5.116902331145582E+08, -3.026373961319266E+08, 9.028905770274851E+07,
2460098.500000000, A.D. 2023-Jun-03 00:00:00.0000, -5.064831096464216E+08, -3.082593168107638E+08, 9.141042473833469E+07,
2460105.500000000, A.D. 2023-Jun-10 00:00:00.0000, -5.011621585819477E+08, -3.138119402352954E+08, 9.251123885375166E+07,
2460112.500000000, A.D. 2023-Jun-17 00:00:00.0000, -4.957277731641222E+08, -3.192935130029081E+08, 9.359110393219694E+07,
2460119.500000000, A.D. 2023-Jun-24 00:00:00.0000, -4.901803605200187E+08, -3.247022625061201E+08, 9.464961952331853E+07,
2460126.500000000, A.D. 2023-Jul-01 00:00:00.0000, -4.845203412298508E+08, -3.300363959729272E+08, 9.568638064037143E+07,
2460133.500000000, A.D. 2023-Jul-08 00:00:00.0000, -4.787481499253049E+08, -3.352940979455547E+08, 9.670097777425662E+07,
2460140.500000000, A.D. 2023-Jul-15 00:00:00.0000, -4.728642381957665E+08, -3.404735290280244E+08, 9.769299701032388E+07,
$$EOE